IRIDIUM 7               
1 24793U 97020B   24245.84538428  .00001068  00000+0  36553-3 0  9991
2 24793  86.3942 297.7291 0002230  86.4584 273.6867 14.35388962430520
IRIDIUM 5               
1 24795U 97020D   24245.92954689  .00013925  00000+0  12852-2 0  9993
2 24795  86.3921 216.0278 0122739  89.6528 271.8761 14.88884742442484
IRIDIUM 4               
1 24796U 97020E   24245.87243809  .00001011  00000+0  33937-3 0  9994
2 24796  86.3932 294.7829 0002388  90.9154 269.2316 14.36315625431071
IRIDIUM 914             
1 24836U 97030A   24245.90550986  .00001255  00000+0  39074-3 0  9999
2 24836  86.3930 304.2342 0004017  92.7331 267.4328 14.40205037565621
IRIDIUM 16              
1 24841U 97030F   24245.92430172  .00001396  00000+0  45444-3 0  9995
2 24841  86.4070 326.4058 0000700  14.7230 345.3988 14.38099693425562
IRIDIUM 911             
1 24842U 97030G   24245.73765566  .00001878  00000+0  51277-3 0  9999
2 24842  86.4494 325.5423 0013509 348.1793  11.9090 14.46800638433363
IRIDIUM 17              
1 24870U 97034B   24245.80266178  .00001707  00000+0  56753-3 0  9992
2 24870  86.4017 356.0167 0001223 143.5487 216.5794 14.37195198422153
IRIDIUM 920             
1 24871U 97034C   24245.82216193  .00001391  00000+0  42762-3 0  9991
2 24871  86.4023 335.9196 0009979 321.6369  38.4120 14.40905124425040
